$$SOE
2460721.500000000, A.D. 2025-Feb-15 00:00:00.0000, 3.911368993096625E+08, -2.905900646022278E+08, 1.648668405104800E+08,
2460728.500000000, A.D. 2025-Feb-22 00:00:00.0000, 3.966493427188258E+08, -2.830245205201995E+08, 1.648981027585568E+08,
2460735.500000000, A.D. 2025-Mar-01 00:00:00.0000, 4.020203365925358E+08, -2.753581017683098E+08, 1.648705543088273E+08,
2460742.500000000, A.D. 2025-Mar-08 00:00:00.0000, 4.072479683527879E+08, -2.675935418352939E+08, 1.647842045208431E+08,
2460749.500000000, A.D. 2025-Mar-15 00:00:00.0000, 4.123303665137941E+08, -2.597336002202888E+08, 1.646390792446124E+08,
2460756.500000000, A.D. 2025-Mar-22 00:00:00.0000, 4.172656987032273E+08, -2.517810616669280E+08, 1.644352210666823E+08,
2460763.500000000, A.D. 2025-Mar-29 00:00:00.0000, 4.220521710616112E+08, -2.437387376578059E+08, 1.641726892508522E+08,
2460770.500000000, A.D. 2025-Apr-05 00:00:00.0000, 4.266880293454140E+08, -2.356094670296463E+08, 1.638515595995669E+08,
2460777.500000000, A.D. 2025-Apr-12 00:00:00.0000, 4.311715598086290E+08, -2.273961156042669E+08, 1.634719244210221E+08,
2460784.500000000, A.D. 2025-Apr-19 00:00:00.0000, 4.355010896762009E+08, -2.191015757158948E+08, 1.630338925469945E+08,
2460791.500000000, A.D. 2025-Apr-26 00:00:00.0000, 4.396749874813741E+08, -2.107287658369446E+08, 1.625375893596799E+08,
2460798.500000000, A.D. 2025-May-03 00:00:00.0000, 4.436916633810468E+08, -2.022806302820845E+08, 1.619831568184940E+08,
2460805.500000000, A.D. 2025-May-10 00:00:00.0000, 4.475495694781379E+08, -1.937601389809653E+08, 1.613707534847955E+08,
2460812.500000000, A.D. 2025-May-17 00:00:00.0000, 4.512472001880237E+08, -1.851702873597875E+08, 1.607005545376829E+08,
2460819.500000000, A.D. 2025-May-24 00:00:00.0000, 4.547830928230907E+08, -1.765140963852749E+08, 1.599727517602044E+08,
2460826.500000000, A.D. 2025-May-31 00:00:00.0000, 4.581558288132284E+08, -1.677946124588133E+08, 1.591875534827296E+08,
2460833.500000000, A.D. 2025-Jun-07 00:00:00.0000, 4.613640351619772E+08, -1.590149059545380E+08, 1.583451846188651E+08,
2460840.500000000, A.D. 2025-Jun-14 00:00:00.0000, 4.644063837749916E+08, -1.501780690677762E+08, 1.574458869570895E+08,
2460847.500000000, A.D. 2025-Jun-21 00:00:00.0000, 4.672815898777152E+08, -1.412872162455050E+08, 1.564899193292606E+08,
2460854.500000000, A.D. 2025-Jun-28 00:00:00.0000, 4.699884126495371E+08, -1.323454854334534E+08, 1.554775575124166E+08,
2460861.500000000, A.D. 2025-Jul-05 00:00:00.0000, 4.725256565572200E+08, -1.233560379820705E+08, 1.544090941785627E+08,
2460868.500000000, A.D. 2025-Jul-12 00:00:00.0000, 4.748921721964395E+08, -1.143220580154491E+08, 1.532848389354480E+08,
2460875.500000000, A.D. 2025-Jul-19 00:00:00.0000, 4.770868568309149E+08, -1.052467518368105E+08, 1.521051183935876E+08,
2460882.500000000, A.D. 2025-Jul-26 00:00:00.0000, 4.791086548393112E+08, -9.613334742545012E+07, 1.508702762355855E+08,
2460889.500000000, A.D. 2025-Aug-02 00:00:00.0000, 4.809565581359839E+08, -8.698509400197423E+07, 1.495806732839113E+08,
2460896.500000000, A.D. 2025-Aug-09 00:00:00.0000, 4.826296065899059E+08, -7.780526167537290E+07, 1.482366875644727E+08,
2460903.500000000, A.D. 2025-Aug-16 00:00:00.0000, 4.841268885194668E+08, -6.859714123458236E+07, 1.468387143543841E+08,
2460910.500000000, A.D. 2025-Aug-23 00:00:00.0000, 4.854475415558892E+08, -5.936404406772680E+07, 1.453871661886132E+08,
2460917.500000000, A.D. 2025-Aug-30 00:00:00.0000, 4.865907542036196E+08, -5.010930149418984E+07, 1.438824728533624E+08,
2460924.500000000, A.D. 2025-Sep-06 00:00:00.0000, 4.875557666794599E+08, -4.083626250775186E+07, 1.423250815780222E+08,
2460931.500000000, A.D. 2025-Sep-13 00:00:00.0000, 4.883418693605073E+08, -3.154829241298997E+07, 1.407154573766263E+08,
2460938.500000000, A.D. 2025-Sep-20 00:00:00.0000, 4.889484021137465E+08, -2.224877399934163E+07, 1.390540831038872E+08,
2460945.500000000, A.D. 2025-Sep-27 00:00:00.0000, 4.893747555644295E+08, -1.294110814003096E+07, 1.373414593820686E+08,
2460952.500000000, A.D. 2025-Oct-04 00:00:00.0000, 4.896203722859023E+08, -3.628713274806425E+06, 1.355781046273393E+08,
2460959.500000000, A.D. 2025-Oct-11 00:00:00.0000, 4.896847475370905E+08, 5.684975282135479E+06, 1.337645551327254E+08,
2460966.500000000, A.D. 2025-Oct-18 00:00:00.0000, 4.895674298312516E+08, 1.499650593618740E+07, 1.319013651591270E+08,
2460973.500000000, A.D. 2025-Oct-25 00:00:00.0000, 4.892680214755004E+08, 2.430241132091254E+07, 1.299891070224030E+08,
2460980.500000000, A.D. 2025-Nov-01 00:00:00.0000, 4.887861791205875E+08, 3.359920873821184E+07, 1.280283711740644E+08,
2460987.500000000, A.D. 2025-Nov-08 00:00:00.0000, 4.881216143555714E+08, 4.288340050010933E+07, 1.260197662697006E+08,
2460994.500000000, A.D. 2025-Nov-15 00:00:00.0000, 4.872740944952823E+08, 5.215147411479080E+07, 1.239639192065273E+08,
2461001.500000000, A.D. 2025-Nov-22 00:00:00.0000, 4.862434439627817E+08, 6.139990253791241E+07, 1.218614751104689E+08,
2461008.500000000, A.D. 2025-Nov-29 00:00:00.0000, 4.850295461122679E+08, 7.062514562557849E+07, 1.197130973785806E+08,
2461015.500000000, A.D. 2025-Dec-06 00:00:00.0000, 4.836323432144611E+08, 7.982365265535280E+07, 1.175194679742495E+08,
2461022.500000000, A.D. 2025-Dec-13 00:00:00.0000, 4.820518350391149E+08, 8.899186254636207E+07, 1.152812876602461E+08,
2461029.500000000, A.D. 2025-Dec-20 00:00:00.0000, 4.802880795273569E+08, 9.812620280199969E+07, 1.129992759321368E+08,
2461036.500000000, A.D. 2025-Dec-27 00:00:00.0000, 4.783411944784363E+08, 1.072230897679702E+08, 1.106741709613274E+08,
2461043.500000000, A.D. 2026-Jan-03 00:00:00.0000, 4.762113587907730E+08, 1.162789295921345E+08, 1.083067296308258E+08,
2461050.500000000, A.D. 2026-Jan-10 00:00:00.0000, 4.738988133665448E+08, 1.252901192092265E+08, 1.058977275979287E+08,
2461057.500000000, A.D. 2026-Jan-17 00:00:00.0000, 4.714038619117724E+08, 1.342530472608770E+08, 1.034479593547491E+08,
2461064.500000000, A.D. 2026-Jan-24 00:00:00.0000, 4.687268717091798E+08, 1.431640949757160E+08, 1.009582382810357E+08,
2461071.500000000, A.D. 2026-Jan-31 00:00:00.0000, 4.658682743866408E+08, 1.520196370043459E+08, 9.842939668630439E+07,
2461078.500000000, A.D. 2026-Feb-07 00:00:00.0000, 4.628285667422451E+08, 1.608160421540383E+08, 9.586228583080152E+07,
2461085.500000000, A.D. 2026-Feb-14 00:00:00.0000, 4.596083118787404E+08, 1.695496740097364E+08, 9.325777590065640E+07,
2461092.500000000, A.D. 2026-Feb-21 00:00:00.0000, 4.562081410341277E+08, 1.782168920195001E+08, 9.061675594829576E+07,
2461099.500000000, A.D. 2026-Feb-28 00:00:00.0000, 4.526287550214103E+08, 1.868140541989197E+08, 8.794013399093178E+07,
2461106.500000000, A.D. 2026-Mar-07 00:00:00.0000, 4.488709232175022E+08, 1.953375195065682E+08, 8.522883729622047E+07,
2461113.500000000, A.D. 2026-Mar-14 00:00:00.0000, 4.449354828770167E+08, 2.037836475585654E+08, 8.248381240963145E+07,
2461120.500000000, A.D. 2026-Mar-21 00:00:00.0000, 4.408233405514843E+08, 2.121487985799154E+08, 7.970602499558654E+07,
2461127.500000000, A.D. 2026-Mar-28 00:00:00.0000, 4.365354736011382E+08, 2.204293346224364E+08, 7.689645975969236E+07,
2461134.500000000, A.D. 2026-Apr-04 00:00:00.0000, 4.320729311933914E+08, 2.286216210858272E+08, 7.405612042830391E+07,
2461141.500000000, A.D. 2026-Apr-11 00:00:00.0000, 4.274368350609619E+08, 2.367220281840150E+08, 7.118602973105432E+07,
2461148.500000000, A.D. 2026-Apr-18 00:00:00.0000, 4.226283801785753E+08, 2.447269323516227E+08, 6.828722937136723E+07,
2461155.500000000, A.D. 2026-Apr-25 00:00:00.0000, 4.176488354037486E+08, 2.526327176061869E+08, 6.536077998188631E+07,
2461162.500000000, A.D. 2026-May-02 00:00:00.0000, 4.124995441116769E+08, 2.604357768370886E+08, 6.240776105924222E+07,
2461169.500000000, A.D. 2026-May-09 00:00:00.0000, 4.071819249478258E+08, 2.681325129555255E+08, 5.942927086079310E+07,
2461176.500000000, A.D. 2026-May-16 00:00:00.0000, 4.016974730750900E+08, 2.757193400443070E+08, 5.642642623932356E+07,
2461183.500000000, A.D. 2026-May-23 00:00:00.0000, 3.960477619654821E+08, 2.831926855295142E+08, 5.340036249350104E+07,
2461190.500000000, A.D. 2026-May-30 00:00:00.0000, 3.902344436541621E+08, 2.905489936934953E+08, 5.035223344970255E+07,
2461197.500000000, A.D. 2026-Jun-06 00:00:00.0000, 3.842592471360226E+08, 2.977847272577986E+08, 4.728321153638439E+07,
2461204.500000000, A.D. 2026-Jun-13 00:00:00.0000, 3.781239785705669E+08, 3.048963672361270E+08, 4.419448753049590E+07,
2461211.500000000, A.D. 2026-Jun-20 00:00:00.0000, 3.718305227917016E+08, 3.118804139827048E+08, 4.108727025975901E+07,
2461218.500000000, A.D. 2026-Jun-27 00:00:00.0000, 3.653808444207408E+08, 3.187333890961789E+08, 3.796278638767055E+07,
2461225.500000000, A.D. 2026-Jul-04 00:00:00.0000, 3.587769885797842E+08, 3.254518374046308E+08, 3.482228021696226E+07,
2461232.500000000, A.D. 2026-Jul-11 00:00:00.0000, 3.520210814568754E+08, 3.320323289001066E+08, 3.166701347650123E+07,
2461239.500000000, A.D. 2026-Jul-18 00:00:00.0000, 3.451153308130404E+08, 3.384714606485286E+08, 2.849826508426969E+07,
2461246.500000000, A.D. 2026-Jul-25 00:00:00.0000, 3.380620264529004E+08, 3.447658586777284E+08, 2.531733088347460E+07,
2461253.500000000, A.D. 2026-Aug-01 00:00:00.0000, 3.308635407041125E+08, 3.509121797954883E+08, 2.212552334256969E+07,
2461260.500000000, A.D. 2026-Aug-08 00:00:00.0000, 3.235223291177753E+08, 3.569071133018339E+08, 1.892417119575085E+07,
2461267.500000000, A.D. 2026-Aug-15 00:00:00.0000, 3.160409318024797E+08, 3.627473830459232E+08, 1.571461902186000E+07,
2461274.500000000, A.D. 2026-Aug-22 00:00:00.0000, 3.084219746281193E+08, 3.684297510473608E+08, 1.249822693035980E+07,
2461281.500000000, A.D. 2026-Aug-29 00:00:00.0000, 3.006681680053355E+08, 3.739510213075554E+08, 9.276370451423377E+06,
2461288.500000000, A.D. 2026-Sep-05 00:00:00.0000, 2.927823053706481E+08, 3.793080409443854E+08, 6.050440199764252E+06,
$$EOE